     2.100          NAVIGATION                              RINEX VERSION / TYPE
fic2rin                                 04/03/2009 01:17:06 PGM / RUN BY / DATE
                                                            END OF HEADER
14 09  4  2 14  0  0.0 -.131867360324D-03  .568434188608D-11  .000000000000D+00
     .950000000000D+02  .457187500000D+02  .391123434718D-08 -.261578739279D+00
     .244565308094D-05  .436803535558D-02  .439211726189D-05  .515359066010D+04
     .396000000000D+06  .745058059692D-07  .273676555384D+01  .968575477600D-07
     .988748788373D+00  .310750000000D+03 -.212085647238D+01 -.803533470394D-08
    -.146434671020D-10  .100000000000D+01  .152500000000D+04  .000000000000D+00
     .340000000000D+01  .000000000000D+00 -.931322574615D-08  .950000000000D+02
     .388806000000D+06  .400000000000D+01
15 09  4  2 14  0  0.0 -.276433769614D-03 -.454747350886D-11  .000000000000D+00
     .230000000000D+02  .541562500000D+02  .448304387963D-08  .377381340476D-01
     .276975333691D-05  .143770058639D-02  .471621751785D-05  .515360234642D+04
     .396000000000D+06  .242143869400D-07  .268604430565D+01 -.167638063431D-07
     .956792160703D+00  .287593750000D+03 -.557411231398D+00 -.825070081766D-08
    -.789318592573D-10  .100000000000D+01  .152500000000D+04  .000000000000D+00
     .240000000000D+01  .000000000000D+00 -.977888703346D-08  .230000000000D+02
     .388806000000D+06  .400000000000D+01
16 09  4  2 14  0  0.0  .627064146101D-04 -.306954461848D-11  .000000000000D+00
     .950000000000D+02 -.791562500000D+02  .418017412103D-08  .148429972711D+01
    -.407546758652D-05  .526982184965D-02  .932812690735D-05  .515379754066D+04
     .396000000000D+06  .149011611938D-07 -.146762486165D+01  .651925802231D-07
     .967644947210D+00  .201750000000D+03 -.372589306537D+00 -.783461205733D-08
     .253939149013D-09  .100000000000D+01  .152500000000D+04  .000000000000D+00
     .240000000000D+01  .000000000000D+00 -.977888703346D-08  .950000000000D+02
     .388806000000D+06  .400000000000D+01
17 09  4  2 14  0  0.0  .525885261595D-04  .159161572810D-11  .000000000000D+00
     .350000000000D+02 -.102187500000D+02  .484377319117D-08  .397152755852D+00
    -.543892383575D-06  .438030250371D-02  .844709575176D-05  .515365535736D+04
     .396000000000D+06  .167638063431D-07 -.425293661611D+00  .204890966415D-07
     .959916713801D+00  .217968750000D+03 -.268490064457D+01 -.803247744207D-08
     .267153985179D-09  .100000000000D+01  .152500000000D+04  .000000000000D+00
     .240000000000D+01  .000000000000D+00 -.102445483208D-07  .350000000000D+02
     .388806000000D+06  .400000000000D+01
18 09  4  2 14  0  0.0 -.692047178745D-04  .341060513165D-11  .000000000000D+00
     .730000000000D+02  .659375000000D+02  .485020203038D-08  .163211483506D+01
     .346265733242D-05  .100638802396D-01  .833906233311D-05  .515376990891D+04
     .396000000000D+06 -.208616256714D-06  .168318009576D+01  .745058059692D-07
     .942870989836D+00  .214218750000D+03 -.243609212975D+01 -.827320175492D-08
    -.356800576462D-09  .100000000000D+01  .152500000000D+04  .000000000000D+00
     .340000000000D+01  .000000000000D+00 -.107102096081D-07  .730000000000D+02
     .388806000000D+06  .400000000000D+01
19 09  4  2 14  0  0.0  .292723998427D-04 -.909494701773D-12  .000000000000D+00
     .760000000000D+02 -.834375000000D+01  .488627496154D-08 -.270088984325D+00
    -.467523932457D-06  .540948577691D-02  .825896859169D-05  .515357771492D+04
     .396000000000D+06  .651925802231D-07 -.369089735852D+00 -.596046447754D-07
     .957673685879D+00  .217156250000D+03 -.379167940884D+00 -.809319425688D-08
     .295726603914D-09  .100000000000D+01  .152500000000D+04  .000000000000D+00
     .240000000000D+01  .000000000000D+00 -.149011611938D-07  .760000000000D+02
     .388806000000D+06  .400000000000D+01
21 09  4  2 14  0  0.0  .213393941522D-04 -.193267624127D-11  .000000000000D+00
     .450000000000D+02  .190625000000D+02  .527950562689D-08  .294150238879D+01
     .845640897751D-06  .149416979402D-01  .809133052826D-05  .515362853432D+04
     .396000000000D+06 -.178813934326D-06  .624497545812D+00 -.147148966789D-06
     .934590099623D+00  .211031250000D+03 -.262824927069D+01 -.808212236712D-08
    -.294297972978D-09  .100000000000D+01  .152500000000D+04  .000000000000D+00
     .240000000000D+01  .000000000000D+00 -.116415321827D-07  .450000000000D+02
     .388806000000D+06  .400000000000D+01
22 09  4  2 14  0  0.0  .202363356948D-03 -.682121026330D-12  .000000000000D+00
     .480000000000D+02  .727812500000D+02  .500163690968D-08  .579603138363D+00
     .392086803913D-05  .485643767752D-02  .784173607826D-05  .515366415977D+04
     .396000000000D+06 -.279396772385D-07  .168898616014D+01  .149011611938D-07
     .940532911737D+00  .220906250000D+03 -.185399825925D+01 -.834570477496D-08
    -.326799326789D-09  .100000000000D+01  .152500000000D+04  .000000000000D+00
     .240000000000D+01  .000000000000D+00 -.181607902050D-07  .480000000000D+02
     .388806000000D+06  .400000000000D+01
23 09  4  2 14  0  0.0  .389024615288D-03  .341060513165D-12  .000000000000D+00
     .120000000000D+02  .707187500000D+02  .420338937375D-08 -.810516597018D+00
     .352971255779D-05  .589732371736D-02  .455044209957D-05  .515362915039D+04
     .396000000000D+06 -.167638063431D-07  .270523116675D+01 -.216066837311D-06
     .970742332457D+00  .297937500000D+03  .287664797534D+01 -.813783897366D-08
     .139291516336D-10  .100000000000D+01  .152500000000D+04  .000000000000D+00
     .240000000000D+01  .000000000000D+00 -.200234353542D-07  .120000000000D+02
     .388806000000D+06  .400000000000D+01
24 09  4  2 14  0  0.0  .178121495992D-03  .306954461848D-11  .000000000000D+00
     .350000000000D+02  .161875000000D+02  .500413701382D-08  .157124714109D+01
     .888481736183D-06  .680433039088D-02  .791996717453D-05  .515367261505D+04
     .396000000000D+06  .856816768646D-07  .655697310871D+00  .167638063431D-07
     .951208494978D+00  .220312500000D+03 -.643108362445D+00 -.812069540242D-08
    -.358943522867D-09  .100000000000D+01  .152500000000D+04  .000000000000D+00
     .240000000000D+01  .000000000000D+00 -.139698386192D-08  .350000000000D+02
     .388806000000D+06  .400000000000D+01
25 09  4  2 14  0  0.0  .336577650160D-03  .218278728426D-10  .000000000000D+00
     .910000000000D+02 -.558125000000D+02  .422446168007D-08  .207039752978D+01
    -.292994081974D-05  .116453815717D-01  .322423875332D-05  .515366126060D+04
     .396000000000D+06  .176951289177D-06 -.263089776976D+01  .115483999252D-06
     .969131841054D+00  .321125000000D+03 -.121138864946D+01 -.801319092442D-08
    -.239295681911D-10  .100000000000D+01  .152500000000D+04  .000000000000D+00
     .685000000000D+01  .000000000000D+00 -.745058059692D-08  .910000000000D+02
     .388806000000D+06  .400000000000D+01
26 09  4  2 14  0  0.0  .546541996300D-04  .204636307899D-11  .000000000000D+00
     .105000000000D+03  .481875000000D+02  .358586365133D-08 -.159253121230D+01
     .268593430519D-05  .202965650242D-01  .425614416599D-05  .515487015533D+04
     .396000000000D+06  .428408384323D-06  .275366492456D+01 -.167638063431D-07
     .993076670589D+00  .310500000000D+03  .989114721238D+00 -.764353266953D-08
     .364300888880D-10  .100000000000D+01  .152500000000D+04  .000000000000D+00
     .340000000000D+01  .000000000000D+00 -.651925802231D-08  .105000000000D+03
     .388806000000D+06  .400000000000D+01
27 09  4  2 14  0  0.0  .374428927898D-04  .318323145621D-11  .000000000000D+00
     .590000000000D+02 -.458125000000D+02  .426589197724D-08  .525285958531D+00
    -.247359275818D-05  .209236958763D-01  .447593629360D-05  .515511979485D+04
     .396000000000D+06 -.247731804848D-06 -.259477385024D+01 -.217929482460D-06
     .973804069317D+00  .307187500000D+03 -.162478168023D+01 -.841713632180D-08
    -.133219834855D-09  .100000000000D+01  .152500000000D+04  .000000000000D+00
     .240000000000D+01  .000000000000D+00 -.419095158577D-08  .590000000000D+02
     .388806000000D+06  .400000000000D+01
29 09  4  2 14  0  0.0  .523775815964D-05  .409272615798D-11  .000000000000D+00
     .116000000000D+03 -.278125000000D+01  .480770026001D-08  .296888918807D+01
    -.381842255592D-06  .338118558284D-02  .827573239803D-05  .515370568085D+04
     .396000000000D+06  .122934579849D-06 -.417101968440D+00  .465661287308D-07
     .960126784449D+00  .218156250000D+03 -.133904557429D+01 -.802104839458D-08
     .292869342041D-09  .100000000000D+01  .152500000000D+04  .000000000000D+00
     .340000000000D+01  .000000000000D+00 -.884756445885D-08  .116000000000D+03
     .388806000000D+06  .400000000000D+01
30 09  4  2 14  0  0.0  .136498361826D-03  .261479726760D-11  .000000000000D+00
     .800000000000D+02 -.728750000000D+02  .465840832712D-08  .132905510338D+01
    -.386685132980D-05  .112453346374D-01  .857561826706D-05  .515362198257D+04
     .396000000000D+06 -.176951289177D-06 -.153138651626D+01 -.204890966415D-06
     .951174433856D+00  .209468750000D+03  .141260543433D+01 -.821962809479D-08
     .292155026572D-09  .100000000000D+01  .152500000000D+04  .000000000000D+00
     .340000000000D+01  .000000000000D+00 -.791624188423D-08  .800000000000D+02
     .388806000000D+06  .400000000000D+01
31 09  4  2 14  0  0.0 -.565787777305D-04 -.113686837722D-11  .000000000000D+00
     .940000000000D+02 -.643437500000D+02  .420910389750D-08 -.252035140543D+01
    -.321492552757D-05  .717837945558D-02  .439770519733D-05  .515368165970D+04
     .396000000000D+06  .484287738800D-07 -.253871504888D+01  .745058059692D-07
     .972183131215D+00  .299968750000D+03 -.115748269298D+01 -.803104881113D-08
     .135719938995D-10  .100000000000D+01  .152500000000D+04  .000000000000D+00
     .485000000000D+01  .000000000000D+00 -.130385160446D-07  .940000000000D+02
     .388806000000D+06  .400000000000D+01
